NORAD_CAT_ID,OBJECT_NAME,OBJECT_TYPE,EPOCH,MEAN_MOTION,ECCENTRICITY,INCLINATION,RA_OF_ASC_NODE,ARG_OF_PERICENTER,MEAN_ANOMALY,BSTAR,MEAN_MOTION_DOT,MEAN_MOTION_DDOT,TLE_LINE0,TLE_LINE1,TLE_LINE2,SEMIMAJOR_AXIS,PERIOD,APOGEE,PERIGEE,DECAYED
53980.0,STARLINK-5133,PAYLOAD,2022-12-16 17:40:05,15.08830748,0.0002005,53.2181,111.4224,43.36,316.755,3.0612e-05,1.99e-06,0.0,0 STARLINK-5133,1 53980U 22125S   22350.73617329  .00000199  00000-0  30612-4 0  9992,2 53980  53.2181 111.4224 0002005  43.3600 316.7550 15.08830748 11413,6917.909000000002,95.438,541.161,538.387,0.0
53980.0,STARLINK-5133,PAYLOAD,2022-12-17 09:33:56,15.08838151,0.0001993,53.2184,108.4489,43.1033,317.0115,0.00017787,2.544e-05,0.0,0 STARLINK-5133,1 53980U 22125S   22351.39857264  .00002544  00000-0  17787-3 0  9992,2 53980  53.2184 108.4489 0001993  43.1033 317.0115 15.08838151 11516,6917.886,95.438,541.13,538.372,0.0
53980.0,STARLINK-5133,PAYLOAD,2022-12-17 17:30:52,15.08841408,0.0001995,53.218,106.962,42.4967,317.6179,0.00025467,3.767e-05,0.0,0 STARLINK-5133,1 53980U 22125S   22351.72977334  .00003767  00000-0  25467-3 0  9992,2 53980  53.2180 106.9620 0001995  42.4967 317.6179 15.08841408 11562,6917.876,95.437,541.121,538.361,0.0
53980.0,STARLINK-5133,PAYLOAD,2022-12-18 11:00:06,15.08844642,0.000207,53.2177,103.6919,40.0927,320.0218,0.00026861,3.99e-05,0.0,0 STARLINK-5133,1 53980U 22125S   22352.45841330  .00003990  00000-0  26861-3 0  9996,2 53980  53.2177 103.6919 0002070  40.0927 320.0218 15.08844642 11675,6917.866,95.437,541.163,538.299,0.0
53980.0,STARLINK-5133,PAYLOAD,2022-12-18 17:21:39,15.08853334,0.0002084,53.2179,102.5023,39.1011,321.0132,0.00045129,6.904e-05,0.0,0 STARLINK-5133,1 53980U 22125S   22352.72336991  .00006904  00000-0  45129-3 0  9994,2 53980  53.2179 102.5023 0002084  39.1011 321.0132 15.08853334 11785,6917.84,95.437,541.146,538.263,0.0
53980.0,STARLINK-5133,PAYLOAD,2022-12-19 07:40:07,15.08849158,0.0001973,53.2181,99.8251,41.2038,318.9103,0.00020205,2.93e-05,0.0,0 STARLINK-5133,1 53980U 22125S   22353.31952760  .00002930  00000-0  20205-3 0  9991,2 53980  53.2181  99.8251 0001973  41.2038 318.9103 15.08849158 11870,6917.852,95.437,541.082,538.3530000000002,0.0
53980.0,STARLINK-5133,PAYLOAD,2022-12-19 15:37:03,15.0884349,0.0002001,53.219,98.3381,35.8884,324.2243,0.0001106,1.473e-05,0.0,0 STARLINK-5133,1 53980U 22125S   22353.65072961  .00001473  00000-0  11060-3 0  9994,2 53980  53.2190  98.3381 0002001  35.8884 324.2243 15.08843490 11923,6917.87,95.437,541.119,538.35,0.0
53980.0,STARLINK-5133,PAYLOAD,2022-12-19 23:33:57,15.08855277,0.0001992,53.2186,96.8528,33.6555,326.4563,0.00021192,3.088e-05,0.0,0 STARLINK-5133,1 53980U 22125S   22353.98192113  .00003088  00000-0  21192-3 0  9993,2 53980  53.2186  96.8528 0001992  33.6555 326.4563 15.08855277 11973,6917.834,95.437,541.077,538.321,0.0
53980.0,STARLINK-5133,PAYLOAD,2022-12-20 13:52:26,15.08852483,0.0001998,53.2191,94.1767,32.2792,327.8322,0.00017952,2.571e-05,0.0,0 STARLINK-5133,1 53980U 22125S   22354.57807896  .00002571  00000-0  17952-3 0  9995,2 53980  53.2191  94.1767 0001998  32.2792 327.8322 15.08852483 11995,6917.842,95.437,541.089,538.325,0.0
53980.0,STARLINK-5133,PAYLOAD,2022-12-21 08:57:04,15.08829176,0.0001595999999999,53.2205,90.6061,34.2869,325.8226,-0.00014493,-2.593e-05,0.0,0 STARLINK-5133,1 53980U 22125S   22355.37296754 -.00002593  00000-0 -14493-3 0  9992,2 53980  53.2205  90.6061 0001596  34.2869 325.8226 15.08829176 12186,6917.913000000001,95.438,540.883,538.674,0.0
53980.0,STARLINK-5133,PAYLOAD,2022-12-21 13:43:13,15.08828664,0.0002103,53.2197,89.7168,31.2498,328.8618,-0.00012085,-2.21e-05,0.0,0 STARLINK-5133,1 53980U 22125S   22355.57168976 -.00002210  00000-0 -12085-3 0  9999,2 53980  53.2197  89.7168 0002103  31.2498 328.8618 15.08828664 12148,6917.915,95.438,541.235,538.325,0.0
53980.0,STARLINK-5133,PAYLOAD,2022-12-21 23:15:32,15.08837145,0.0002058,53.2199,87.9328,33.7281,326.3842,-5.896e-05,-1.226e-05,0.0,0 STARLINK-5133,1 53980U 22125S   22355.96912736 -.00001226  00000-0 -58960-4 0  9992,2 53980  53.2199  87.9328 0002058  33.7281 326.3842 15.08837145 12274,6917.889,95.438,541.178,538.33,0.0
53980.0,STARLINK-5133,PAYLOAD,2022-12-22 08:47:51,15.08844173,0.0002101,53.2192,86.1476,31.3325,328.7792,5.2507e-05,5.48e-06,0.0,0 STARLINK-5133,1 53980U 22125S   22356.36656344  .00000548  00000-0  52507-4 0  9992,2 53980  53.2192  86.1476 0002101  31.3325 328.7792 15.08844173 12262,6917.868,95.437,541.186,538.279,0.0
53980.0,STARLINK-5133,PAYLOAD,2022-12-22 15:09:24,15.08836383,0.00021,53.2196,84.9592,36.4664,323.6471,-6.1833000000000014e-06,-3.87e-06,0.0,0 STARLINK-5133,1 53980U 22125S   22356.63152826 -.00000387  00000-0 -61833-5 0  9994,2 53980  53.2196  84.9592 0002100  36.4664 323.6471 15.08836383 12309,6917.891,95.438,541.2090000000002,538.304,0.0
53980.0,STARLINK-5133,PAYLOAD,2022-12-23 08:38:39,15.08826701,0.0002115,53.2196,81.6881,34.5318,325.5811,0.00014595,2.035e-05,0.0,0 STARLINK-5133,1 53980U 22125S   22357.36017808  .00002035  00000-0  14595-3 0  9996,2 53980  53.2196  81.6881 0002115  34.5318 325.5811 15.08826701 12486,6917.920999999999,95.438,541.249,538.323,0.0
53980.0,STARLINK-5133,PAYLOAD,2022-12-23 13:24:48,15.08830573,0.0002144,53.2199,80.7961,34.1009,326.0121,0.00021101,3.071e-05,0.0,0 STARLINK-5133,1 53980U 22125S   22357.55889613  .00003071  00000-0  21101-3 0  9990,2 53980  53.2199  80.7961 0002144  34.1009 326.0121 15.08830573 12441,6917.909000000002,95.438,541.257,538.2909999999998,0.0
53980.0,STARLINK-5133,PAYLOAD,2022-12-23 18:10:58,15.08823542,0.0002145,53.2199,79.9039,32.6577,327.4548,9.0555e-05,1.153e-05,0.0,0 STARLINK-5133,1 53980U 22125S   22357.75762615  .00001153  00000-0  90555-4 0  9993,2 53980  53.2199  79.9039 0002145  32.6577 327.4548 15.08823542 12470,6917.931,95.439,541.28,538.312,0.0
53980.0,STARLINK-5133,PAYLOAD,2022-12-24 11:40:12,15.08844762,0.0002412,53.2195,76.6341,35.5458,324.5695,0.0001455,2.028e-05,0.0,0 STARLINK-5133,1 53980U 22125S   22358.48625589  .00002028  00000-0  14550-3 0  9994,2 53980  53.2195  76.6341 0002412  35.5458 324.5695 15.08844762 12651,6917.866,95.437,541.399,538.062,0.0
53980.0,STARLINK-5133,PAYLOAD,2022-12-24 16:26:22,15.08836422,0.0002431,53.2188,75.7425,34.4149,325.7,0.00017989,2.576e-05,0.0,0 STARLINK-5133,1 53980U 22125S   22358.68498373  .00002576  00000-0  17989-3 0  9992,2 53980  53.2188  75.7425 0002431  34.4149 325.7000 15.08836422 12682,6917.891,95.438,541.438,538.075,0.0
53980.0,STARLINK-5133,PAYLOAD,2022-12-25 11:30:59,15.08845781,0.0002363,53.2186,72.1742,34.6571,325.4575,3.7169e-05,3.03e-06,0.0,0 STARLINK-5133,1 53980U 22125S   22359.47985935  .00000303  00000-0  37169-4 0  9994,2 53980  53.2186  72.1742 0002363  34.6571 325.4575 15.08845781 12736,6917.863,95.437,541.362,538.0930000000002,0.0
53980.0,STARLINK-5133,PAYLOAD,2022-12-25 16:17:09,15.08836032,0.0002356,53.2188,71.2822,34.0628,326.0515,9.2247e-05,1.18e-05,0.0,0 STARLINK-5133,1 53980U 22125S   22359.67858499  .00001180  00000-0  92247-4 0  9992,2 53980  53.2188  71.2822 0002356  34.0628 326.0515 15.08836032 12769,6917.893,95.438,541.387,538.128,0.0
53980.0,STARLINK-5133,PAYLOAD,2022-12-26 11:21:47,15.0883951,0.0002361,53.2191,67.7135,35.3402,324.7746,9.18e-05,1.173e-05,0.0,0 STARLINK-5133,1 53980U 22125S   22360.47346597  .00001173  00000-0  91800-4 0  9999,2 53980  53.2191  67.7135 0002361  35.3402 324.7746 15.08839510 12956,6917.882,95.438,541.38,538.114,0.0
53980.0,STARLINK-5133,PAYLOAD,2022-12-27 04:51:01,15.08854854,0.0002385,53.2194,64.4429,33.1436,326.9705,0.00028017,4.175e-05,0.0,0 STARLINK-5133,1 53980U 22125S   22361.20209583  .00004175  00000-0  28017-3 0  9998,2 53980  53.2194  64.4429 0002385  33.1436 326.9705 15.08854854 13068,6917.835,95.437,541.35,538.05,0.0
53980.0,STARLINK-5133,PAYLOAD,2022-12-27 12:47:56,15.08853777,0.0002425,53.2193,62.9561,32.1427,327.9713,0.0002662,3.952e-05,0.0,0 STARLINK-5133,1 53980U 22125S   22361.53329468  .00003952  00000-0  26620-3 0  9999,2 53980  53.2193  62.9561 0002425  32.1427 327.9713 15.08853777 13042,6917.8380000000025,95.437,541.381,538.026,0.0
53980.0,STARLINK-5133,PAYLOAD,2022-12-27 14:23:19,15.08855639,0.0002412,53.2192,62.6582,32.4551,327.659,0.00034347,5.185e-05,0.0,0 STARLINK-5133,1 53980U 22125S   22361.59953371  .00005185  00000-0  34347-3 0  9996,2 53980  53.2192  62.6582 0002412  32.4551 327.6590 15.08855639 13058,6917.833000000001,95.437,541.366,538.029,0.0
53980.0,STARLINK-5133,PAYLOAD,2022-12-27 23:55:38,15.08855644,0.000242,53.2178,60.8742,32.4128,327.7013,0.00021911,3.202e-05,0.0,0 STARLINK-5133,1 53980U 22125S   22361.99697056  .00003202  00000-0  21911-3 0  9996,2 53980  53.2178  60.8742 0002420  32.4128 327.7013 15.08855644 13180,6917.833000000001,95.437,541.372,538.023,0.0
53980.0,STARLINK-5133,PAYLOAD,2022-12-28 14:14:06,15.08838976,0.000241,53.2178,58.198,31.8922,328.2216,-0.00014233,-2.553e-05,0.0,0 STARLINK-5133,1 53980U 22125S   22362.59313315 -.00002553  00000-0 -14233-3 0  9995,2 53980  53.2178  58.1980 0002410  31.8922 328.2216 15.08838976 13278,6917.884,95.438,541.4159999999998,538.081,0.0
53980.0,STARLINK-5133,PAYLOAD,2022-12-29 10:54:09,15.08828437,0.0002463999999999,53.2179,54.3329,29.1405,330.9725,-0.00014743,-2.633e-05,0.0,0 STARLINK-5133,1 53980U 22125S   22363.45427167 -.00002633  00000-0 -14743-3 0  9997,2 53980  53.2179  54.3329 0002464  29.1405 330.9725 15.08828437 13400,6917.916,95.438,541.485,538.076,0.0
53980.0,STARLINK-5133,PAYLOAD,2022-12-29 12:29:32,15.08824283,0.0002542,53.2178,54.0359,25.4381,334.6736,-0.00017788,-3.117e-05,0.0,0 STARLINK-5133,1 53980U 22125S   22363.52051632 -.00003117  00000-0 -17788-3 0  9995,2 53980  53.2178  54.0359 0002542  25.4381 334.6736 15.08824283 13349,6917.928000000001,95.439,541.552,538.035,0.0
